COSMOS 2419 (714)       
1 28915U 05050A   17106.71382993  .00000005  00000-0  00000-0 0  9997
2 28915  65.4684  67.9221 0017370 346.9783  92.9629  2.13110267 88023
COSMOS 2425 (716)       
1 29670U 06062A   17106.62993233 -.00000001  00000-0  10000-3 0  9996
2 29670  65.4917 306.9368 0022072 351.3326  77.2253  2.13104854 80225
COSMOS 2426 (717)       
1 29671U 06062B   17106.88815244  .00000001  00000-0  10000-3 0  9999
2 29671  65.5093 307.0168 0016707 157.5120 327.9190  2.13102906 80230
COSMOS 2424 (715)       
1 29672U 06062C   17106.60193176 -.00000001  00000-0  10000-3 0  9994
2 29672  65.4933 306.9495 0016280 156.0830 285.2180  2.13102102 80224
COSMOS 2433 (720)       
1 32275U 07052A   17106.67832109  .00000005  00000-0  10000-3 0  9993
2 32275  65.4831  67.7003 0004863 289.1417   8.7079  2.13104663 73731
COSMOS 2432 (719)       
1 32276U 07052B   17106.74801301  .00000005  00000-0  10000-3 0  9992
2 32276  65.4951  67.7677 0014029 331.4386 332.8819  2.13104045 73730
COSMOS 2434 (721)       
1 32393U 07065A   17106.66853200 -.00000001  00000-0  00000-0 0  9995
2 32393  65.1077 306.1143 0005675  91.7702  88.4712  2.13102797 72444
COSMOS 2436 (723)       
1 32395U 07065C   17106.76905561  .00000000  00000-0  10000-3 0  9998
2 32395  65.1167 306.1567 0016239   7.0561 298.6837  2.13104204 72377
COSMOS 2443 (725)       
1 33379U 08046B   17106.81662806  .00000004  00000-0  00000-0 0  9999
2 33379  65.4129  67.0846 0015718 187.4227 117.9572  2.13101971 66591
COSMOS 2456 (730)       
1 36111U 09070A   17106.73417949  .00000009  00000-0  00000-0 0  9996
2 36111  64.1784 185.6774 0004701 310.2625  91.2189  2.13102813 57118
COSMOS 2457 (733)       
1 36112U 09070B   17106.63827670  .00000009  00000-0  00000-0 0  9992
2 36112  64.1605 185.6011 0006360 171.8706 284.8860  2.13101507 57114
COSMOS 2458 (734)       
1 36113U 09070C   17106.57966955  .00000009  00000-0  10000-3 0  9990
2 36113  64.1659 185.6105 0001422 350.9458 108.7411  2.13102069 57116
COSMOS 2459 (731)       
1 36400U 10007A   17106.81451473  .00000004  00000-0  10000-3 0  9997
2 36400  65.3919  66.8084 0029734 349.3059 275.6159  2.13102244 55462
COSMOS 2461 (735)       
1 36401U 10007B   17106.60029657  .00000002  00000-0  10000-3 0  9998
2 36401  65.3846  66.7950 0005886  43.0630 328.1092  2.13102238 55461
COSMOS 2460 (732)       
1 36402U 10007C   17106.88196265  .00000004  00000-0  10000-3 0  9991
2 36402  65.3750  66.7590 0002797 316.6513 312.0104  2.13101738 55463
COSMOS 2465 (737)       
1 37138U 10041B   17106.77998847 -.00000001  00000-0  00000-0 0  9994
2 37138  64.7054 306.1290 0034558 168.8333 141.3038  2.13107241 51533
COSMOS 2464 (736)       
1 37139U 10041C   17106.62495772 -.00000002  00000-0  00000-0 0  9999
2 37139  64.7150 306.1338 0024690  16.2126 358.3414  2.13102568 51531
COSMOS 2471 (701K)      
1 37372U 11009A   17106.68451339  .00000003  00000-0  00000-0 0  9990
2 37372  65.3721  66.7136 0008592 247.2891   4.7422  2.13107652 47731
COSMOS 2474 (742)       
1 37829U 11055A   17106.50816684  .00000010  00000-0  00000-0 0  9995
2 37829  64.5034 186.2240 0008712 249.3935 198.7631  2.13101872 43107
COSMOS 2476 (744)       
1 37867U 11064A   17106.82118466  .00000009  00000-0  00000-0 0  9993
2 37867  64.4829 186.2872 0017964 244.5166 129.7019  2.13101981 42466
COSMOS 2477 (745)       
1 37868U 11064B   17106.61506115  .00000009  00000-0  00000-0 0  9993
2 37868  64.4912 186.3374 0015803 245.7608 149.4841  2.13101776 42411
COSMOS 2475 (743)       
1 37869U 11064C   17106.66342595  .00000009  00000-0  00000-0 0  9999
2 37869  64.4983 186.3263 0020718 271.9055 116.7989  2.13101829 42425
COSMOS 2485 (747)       
1 39155U 13019A   17106.61178939  .00000009  00000-0  00000-0 0  9995
2 39155  64.6522 186.3102 0018248 239.3623  19.2573  2.13101944 30928
COSMOS 2492 (754)       
1 39620U 14012A   17106.61147461  .00000002  00000-0  10000-3 0  9999
2 39620  65.2646  66.7135 0017478 328.7720 323.6281  2.13103384 23875
COSMOS 2500 (755)       
1 40001U 14032A   17106.54005352  .00000001  00000-0  00000-0 0  9995
2 40001  65.2051  66.7152 0005735 233.1588 227.6020  2.13102810 22093
COSMOS 2501 (702K)      
1 40315U 14075A   17106.62360468 -.00000005  00000-0  00000-0 0  9996
2 40315  64.4414 307.4983 0013482 206.2175 125.5128  2.13098445 18495
COSMOS 2514 (751)       
1 41330U 16008A   17106.54113797  .00000001  00000-0  00000-0 0  9999
2 41330  65.0058  66.8770 0009271 233.5686  47.8604  2.13103359  9255
COSMOS 2516 (753)       
1 41554U 16032A   17106.76283572 -.00000003  00000-0  00000-0 0  9990
2 41554  64.6585 307.2402 0009448 217.4618 126.9839  2.13101678  6864
